UNKNOWN                 
1 81745U          26007.55003352  .00002664  00000+0  85196-3 0  9992
2 81745  71.0024 331.0214 0006093 212.3544 147.7220 14.40506217633469
UNKNOWN                 
1 81775U          26007.49459149  .00005626  00000+0  17344-2 0  9997
2 81775  82.9177 202.9347 0016371 170.0903 190.0616 14.41229713628989
UNKNOWN                 
1 81779U          26008.56305498  .00000960  00000+0  52273-1 0  9992
2 81779  54.5479 169.2625 1579997  78.1754 299.1264  9.34350410482824
UNKNOWN                 
1 81792U          26007.51703765  .00002828  00000+0  10039-2 0  9990
2 81792  65.8258  37.9373 0896489 271.0277  78.8301 13.11058053 83415
UNKNOWN                 
1 81812U          26006.47235357  .00000125  00000+0  12505-2 0  9992
2 81812 103.8146 286.3279 0250433 205.6269 153.2193 12.37646952543628
UNKNOWN                 
1 81816U          26008.01012564  .00001145  00000+0  88313-3 0  9995
2 81816  66.2369 230.6227 0176611 231.4853 127.0274 13.89544826612998
UNKNOWN                 
1 81819U          26008.20005150  .00001085  00000+0  76508-2 0  9997
2 81819 102.1730 110.7356 0031986  71.7146 288.7397 12.47717194551311
UNKNOWN                 
1 81824U          26007.12325719  .00005071  00000+0  17628-2 0  9996
2 81824  65.8423 267.9885 0043419 317.9709  41.8056 14.35753421628235
UNKNOWN                 
1 81833U          26007.71744187  .00000178  00000+0  61987-3 0  9996
2 81833  90.2405   3.4723 0026181 318.3047  41.6076 12.93737743455877
UNKNOWN                 
1 81844U          26008.43863736  .00002765  00000+0  97957-3 0  9990
2 81844  82.9084 260.6502 0063308  70.1458 290.6539 14.33127909626719
UNKNOWN                 
1 81845U          26008.48442745  .00004473  00000+0  49301-3 0  9997
2 81845  97.6742 199.5335 0086675 216.4586 173.2959 14.85281490653497
UNKNOWN                 
1 81864U          26005.28723510  .00003108  00000+0  12043-2 0  9991
2 81864  65.6708  11.8308 0764802   2.9144 357.5985 13.32454531553971
