CCSDS_OMM_VERS = 2.0
CREATION_DATE  = 
ORIGINATOR     = 

OBJECT_NAME    = UNKNOWN
OBJECT_ID      = 
CENTER_NAME    = EARTH
REF_FRAME      = TEME
TIME_SYSTEM    = UTC
MEAN_ELEMENT_THEORY = SGP/SGP4

EPOCH          = 2026-01-07T13:12:02.896128
MEAN_MOTION    = 14.40506217
ECCENTRICITY   = .0006093
INCLINATION    = 71.0024
RA_OF_ASC_NODE = 331.0214
ARG_OF_PERICENTER = 212.3544
MEAN_ANOMALY   = 147.7220

EPHEMERIS_TYPE = 0
CLASSIFICATION_TYPE = U
NORAD_CAT_ID   = 81745
ELEMENT_SET_NO = 999
REV_AT_EPOCH   = 63346
BSTAR          = .85196E-3
MEAN_MOTION_DOT = .2664E-4
MEAN_MOTION_DDOT = 0

CCSDS_OMM_VERS = 2.0
CREATION_DATE  = 
ORIGINATOR     = 

OBJECT_NAME    = UNKNOWN
OBJECT_ID      = 
CENTER_NAME    = EARTH
REF_FRAME      = TEME
TIME_SYSTEM    = UTC
MEAN_ELEMENT_THEORY = SGP/SGP4

EPOCH          = 2026-01-07T11:52:12.704736
MEAN_MOTION    = 14.41229713
ECCENTRICITY   = .0016371
INCLINATION    = 82.9177
RA_OF_ASC_NODE = 202.9347
ARG_OF_PERICENTER = 170.0903
MEAN_ANOMALY   = 190.0616

EPHEMERIS_TYPE = 0
CLASSIFICATION_TYPE = U
NORAD_CAT_ID   = 81775
ELEMENT_SET_NO = 999
REV_AT_EPOCH   = 62898
BSTAR          = .17344E-2
MEAN_MOTION_DOT = .5626E-4
MEAN_MOTION_DDOT = 0

CCSDS_OMM_VERS = 2.0
CREATION_DATE  = 
ORIGINATOR     = 

OBJECT_NAME    = UNKNOWN
OBJECT_ID      = 
CENTER_NAME    = EARTH
REF_FRAME      = TEME
TIME_SYSTEM    = UTC
MEAN_ELEMENT_THEORY = SGP/SGP4

EPOCH          = 2026-01-08T13:30:47.950272
MEAN_MOTION    = 9.34350410
ECCENTRICITY   = .1579997
INCLINATION    = 54.5479
RA_OF_ASC_NODE = 169.2625
ARG_OF_PERICENTER = 78.1754
MEAN_ANOMALY   = 299.1264

EPHEMERIS_TYPE = 0
CLASSIFICATION_TYPE = U
NORAD_CAT_ID   = 81779
ELEMENT_SET_NO = 999
REV_AT_EPOCH   = 48282
BSTAR          = .52273E-1
MEAN_MOTION_DOT = .96E-5
MEAN_MOTION_DDOT = 0

CCSDS_OMM_VERS = 2.0
CREATION_DATE  = 
ORIGINATOR     = 

OBJECT_NAME    = UNKNOWN
OBJECT_ID      = 
CENTER_NAME    = EARTH
REF_FRAME      = TEME
TIME_SYSTEM    = UTC
MEAN_ELEMENT_THEORY = SGP/SGP4

EPOCH          = 2026-01-07T12:24:32.052960
MEAN_MOTION    = 13.11058053
ECCENTRICITY   = .0896489
INCLINATION    = 65.8258
RA_OF_ASC_NODE = 37.9373
ARG_OF_PERICENTER = 271.0277
MEAN_ANOMALY   = 78.8301

EPHEMERIS_TYPE = 0
CLASSIFICATION_TYPE = U
NORAD_CAT_ID   = 81792
ELEMENT_SET_NO = 999
REV_AT_EPOCH   = 8341
BSTAR          = .10039E-2
MEAN_MOTION_DOT = .2828E-4
MEAN_MOTION_DDOT = 0

CCSDS_OMM_VERS = 2.0
CREATION_DATE  = 
ORIGINATOR     = 

OBJECT_NAME    = UNKNOWN
OBJECT_ID      = 
CENTER_NAME    = EARTH
REF_FRAME      = TEME
TIME_SYSTEM    = UTC
MEAN_ELEMENT_THEORY = SGP/SGP4

EPOCH          = 2026-01-06T11:20:11.348448
MEAN_MOTION    = 12.37646952
ECCENTRICITY   = .0250433
INCLINATION    = 103.8146
RA_OF_ASC_NODE = 286.3279
ARG_OF_PERICENTER = 205.6269
MEAN_ANOMALY   = 153.2193

EPHEMERIS_TYPE = 0
CLASSIFICATION_TYPE = U
NORAD_CAT_ID   = 81812
ELEMENT_SET_NO = 999
REV_AT_EPOCH   = 54362
BSTAR          = .12505E-2
MEAN_MOTION_DOT = .125E-5
MEAN_MOTION_DDOT = 0

CCSDS_OMM_VERS = 2.0
CREATION_DATE  = 
ORIGINATOR     = 

OBJECT_NAME    = UNKNOWN
OBJECT_ID      = 
CENTER_NAME    = EARTH
REF_FRAME      = TEME
TIME_SYSTEM    = UTC
MEAN_ELEMENT_THEORY = SGP/SGP4

EPOCH          = 2026-01-08T00:14:34.855296
MEAN_MOTION    = 13.89544826
ECCENTRICITY   = .0176611
INCLINATION    = 66.2369
RA_OF_ASC_NODE = 230.6227
ARG_OF_PERICENTER = 231.4853
MEAN_ANOMALY   = 127.0274

EPHEMERIS_TYPE = 0
CLASSIFICATION_TYPE = U
NORAD_CAT_ID   = 81816
ELEMENT_SET_NO = 999
REV_AT_EPOCH   = 61299
BSTAR          = .88313E-3
MEAN_MOTION_DOT = .1145E-4
MEAN_MOTION_DDOT = 0

CCSDS_OMM_VERS = 2.0
CREATION_DATE  = 
ORIGINATOR     = 

OBJECT_NAME    = UNKNOWN
OBJECT_ID      = 
CENTER_NAME    = EARTH
REF_FRAME      = TEME
TIME_SYSTEM    = UTC
MEAN_ELEMENT_THEORY = SGP/SGP4

EPOCH          = 2026-01-08T04:48:04.449600
MEAN_MOTION    = 12.47717194
ECCENTRICITY   = .0031986
INCLINATION    = 102.1730
RA_OF_ASC_NODE = 110.7356
ARG_OF_PERICENTER = 71.7146
MEAN_ANOMALY   = 288.7397

EPHEMERIS_TYPE = 0
CLASSIFICATION_TYPE = U
NORAD_CAT_ID   = 81819
ELEMENT_SET_NO = 999
REV_AT_EPOCH   = 55131
BSTAR          = .76508E-2
MEAN_MOTION_DOT = .1085E-4
MEAN_MOTION_DDOT = 0

CCSDS_OMM_VERS = 2.0
CREATION_DATE  = 
ORIGINATOR     = 

OBJECT_NAME    = UNKNOWN
OBJECT_ID      = 
CENTER_NAME    = EARTH
REF_FRAME      = TEME
TIME_SYSTEM    = UTC
MEAN_ELEMENT_THEORY = SGP/SGP4

EPOCH          = 2026-01-07T02:57:29.421216
MEAN_MOTION    = 14.35753421
ECCENTRICITY   = .0043419
INCLINATION    = 65.8423
RA_OF_ASC_NODE = 267.9885
ARG_OF_PERICENTER = 317.9709
MEAN_ANOMALY   = 41.8056

EPHEMERIS_TYPE = 0
CLASSIFICATION_TYPE = U
NORAD_CAT_ID   = 81824
ELEMENT_SET_NO = 999
REV_AT_EPOCH   = 62823
BSTAR          = .17628E-2
MEAN_MOTION_DOT = .5071E-4
MEAN_MOTION_DDOT = 0

CCSDS_OMM_VERS = 2.0
CREATION_DATE  = 
ORIGINATOR     = 

OBJECT_NAME    = UNKNOWN
OBJECT_ID      = 
CENTER_NAME    = EARTH
REF_FRAME      = TEME
TIME_SYSTEM    = UTC
MEAN_ELEMENT_THEORY = SGP/SGP4

EPOCH          = 2026-01-07T17:13:06.977568
MEAN_MOTION    = 12.93737743
ECCENTRICITY   = .0026181
INCLINATION    = 90.2405
RA_OF_ASC_NODE = 3.4723
ARG_OF_PERICENTER = 318.3047
MEAN_ANOMALY   = 41.6076

EPHEMERIS_TYPE = 0
CLASSIFICATION_TYPE = U
NORAD_CAT_ID   = 81833
ELEMENT_SET_NO = 999
REV_AT_EPOCH   = 45587
BSTAR          = .61987E-3
MEAN_MOTION_DOT = .178E-5
MEAN_MOTION_DDOT = 0

CCSDS_OMM_VERS = 2.0
CREATION_DATE  = 
ORIGINATOR     = 

OBJECT_NAME    = UNKNOWN
OBJECT_ID      = 
CENTER_NAME    = EARTH
REF_FRAME      = TEME
TIME_SYSTEM    = UTC
MEAN_ELEMENT_THEORY = SGP/SGP4

EPOCH          = 2026-01-08T10:31:38.267904
MEAN_MOTION    = 14.33127909
ECCENTRICITY   = .0063308
INCLINATION    = 82.9084
RA_OF_ASC_NODE = 260.6502
ARG_OF_PERICENTER = 70.1458
MEAN_ANOMALY   = 290.6539

EPHEMERIS_TYPE = 0
CLASSIFICATION_TYPE = U
NORAD_CAT_ID   = 81844
ELEMENT_SET_NO = 999
REV_AT_EPOCH   = 62671
BSTAR          = .97957E-3
MEAN_MOTION_DOT = .2765E-4
MEAN_MOTION_DDOT = 0

CCSDS_OMM_VERS = 2.0
CREATION_DATE  = 
ORIGINATOR     = 

OBJECT_NAME    = UNKNOWN
OBJECT_ID      = 
CENTER_NAME    = EARTH
REF_FRAME      = TEME
TIME_SYSTEM    = UTC
MEAN_ELEMENT_THEORY = SGP/SGP4

EPOCH          = 2026-01-08T11:37:34.531680
MEAN_MOTION    = 14.85281490
ECCENTRICITY   = .0086675
INCLINATION    = 97.6742
RA_OF_ASC_NODE = 199.5335
ARG_OF_PERICENTER = 216.4586
MEAN_ANOMALY   = 173.2959

EPHEMERIS_TYPE = 0
CLASSIFICATION_TYPE = U
NORAD_CAT_ID   = 81845
ELEMENT_SET_NO = 999
REV_AT_EPOCH   = 65349
BSTAR          = .49301E-3
MEAN_MOTION_DOT = .4473E-4
MEAN_MOTION_DDOT = 0

CCSDS_OMM_VERS = 2.0
CREATION_DATE  = 
ORIGINATOR     = 

OBJECT_NAME    = UNKNOWN
OBJECT_ID      = 
CENTER_NAME    = EARTH
REF_FRAME      = TEME
TIME_SYSTEM    = UTC
MEAN_ELEMENT_THEORY = SGP/SGP4

EPOCH          = 2026-01-05T06:53:37.112640
MEAN_MOTION    = 13.32454531
ECCENTRICITY   = .0764802
INCLINATION    = 65.6708
RA_OF_ASC_NODE = 11.8308
ARG_OF_PERICENTER = 2.9144
MEAN_ANOMALY   = 357.5985

EPHEMERIS_TYPE = 0
CLASSIFICATION_TYPE = U
NORAD_CAT_ID   = 81864
ELEMENT_SET_NO = 999
REV_AT_EPOCH   = 55397
BSTAR          = .12043E-2
MEAN_MOTION_DOT = .3108E-4
MEAN_MOTION_DDOT = 0

